{"type": "FeatureCollection", "name": "model_samples", "crs_of_coordinates": "EPSG:4326", "source_crs": "EPSG:4326", "description": "Model samples with spatially cross-validated predictions and confidence; synthetic development output", "features": [{"type": "Feature", "geometry": {"type": "Point", "coordinates": [93.63558333333333, 26.597375000000003]}, "properties": {"reference_class": 2, "prediction": 2, "confidence": 0.9875, "uncertain": false, "fold": 2, "evaluated": true, "row": 0, "col": 258}}, {"type": "Feature", "geometry": {"type": "Point", "coordinates": [92.31291666666667, 26.576375000000002]}, "properties": {"reference_class": 2, "prediction": 2, "confidence": 0.975, "uncertain": false, "fold": 2, "evaluated": true, "row": 4, "col": 2}}, {"type": "Feature", "geometry": {"type": "Point", "coordinates": [93.37208333333334, 26.550125]}, "properties": {"reference_class": 2, "prediction": 2, "confidence": 1.0, "uncertain": false, "fold": 2, "evaluated": true, "row": 9, "col": 207}}, {"type": "Feature", "geometry": {"type": "Point", "coordinates": [93.67175, 26.529125]}, "properties": {"reference_class": 2, "prediction": 2, "confidence": 1.0, "uncertain": false, "fold": 2, "evaluated": true, "row": 13, "col": 265}}, {"type": "Feature", "geometry": {"type": "Point", "coordinates": [92.42141666666666, 26.523875]}, "properties": {"reference_class": 2, "prediction": 2, "confidence": 0.925, "uncertain": false, "fold": 2, "evaluated": true, "row": 14, "col": 23}}, {"type": "Feature", "geometry": {"type": "Point", "coordinates": [93.10341666666666, 26.513375]}, "properties": {"reference_class": 2, "prediction": 2, "confidence": 0.975, "uncertain": false, "fold": 0, "evaluated": true, "row": 16, "col": 155}}, {"type": "Feature", "geometry": {"type": "Point", "coordinates": [92.94841666666666, 26.497625000000003]}, "properties": {"reference_class": 2, "prediction": 2, "confidence": 0.9375, "uncertain": false, "fold": 3, "evaluated": true, "row": 19, "col": 125}}, {"type": "Feature", "geometry": {"type": "Point", "coordinates": [93.47025, 26.481875000000002]}, "properties": {"reference_class": 2, "prediction": 2, "confidence": 0.9016666666666666, "uncertain": false, "fold": 3, "evaluated": true, "row": 22, "col": 226}}, {"type": "Feature", "geometry": {"type": "Point", "coordinates": [93.11375, 26.476625000000002]}, "properties": {"reference_class": 2, "prediction": 2, "confidence": 0.675, "uncertain": false, "fold": 0, "evaluated": true, "row": 23, "col": 157}}, {"type": "Feature", "geometry": {"type": "Point", "coordinates": [93.80608333333333, 26.466125]}, "properties": {"reference_class": 2, "prediction": 2, "confidence": 0.9666666666666668, "uncertain": false, "fold": 3, "evaluated": true, "row": 25, "col": 291}}, {"type": "Feature", "geometry": {"type": "Point", "coordinates": [93.30491666666667, 26.460875]}, "properties": {"reference_class": 2, "prediction": 2, "confidence": 1.0, "uncertain": false, "fold": 3, "evaluated": true, "row": 26, "col": 194}}, {"type": "Feature", "geometry": {"type": "Point", "coordinates": [92.59191666666666, 26.445125]}, "properties": {"reference_class": 2, "prediction": 2, "confidence": 1.0, "uncertain": false, "fold": 0, "evaluated": true, "row": 29, "col": 56}}, {"type": "Feature", "geometry": {"type": "Point", "coordinates": [93.38758333333332, 26.445125]}, "properties": {"reference_class": 3, "prediction": 3, "confidence": 0.7458333333333333, "uncertain": false, "fold": 1, "evaluated": true, "row": 29, "col": 210}}, {"type": "Feature", "geometry": {"type": "Point", "coordinates": [93.57875, 26.439875]}, "properties": {"reference_class": 4, "prediction": 4, "confidence": 1.0, "uncertain": false, "fold": 3, "evaluated": true, "row": 30, "col": 247}}, {"type": "Feature", "geometry": {"type": "Point", "coordinates": [93.58391666666667, 26.439875]}, "properties": {"reference_class": 4, "prediction": 4, "confidence": 1.0, "uncertain": false, "fold": 2, "evaluated": true, "row": 30, "col": 248}}, {"type": "Feature", "geometry": {"type": "Point", "coordinates": [93.59425, 26.439875]}, "properties": {"reference_class": 4, "prediction": 4, "confidence": 0.95625, "uncertain": false, "fold": 2, "evaluated": true, "row": 30, "col": 250}}, {"type": "Feature", "geometry": {"type": "Point", "coordinates": [93.56325, 26.434625]}, "properties": {"reference_class": 4, "prediction": 4, "confidence": 0.9208333333333334, "uncertain": false, "fold": 3, "evaluated": true, "row": 31, "col": 244}}, {"type": "Feature", "geometry": {"type": "Point", "coordinates": [93.56325, 26.429375]}, "properties": {"reference_class": 4, "prediction": 4, "confidence": 0.9875, "uncertain": false, "fold": 1, "evaluated": true, "row": 32, "col": 244}}, {"type": "Feature", "geometry": {"type": "Point", "coordinates": [93.57358333333333, 26.429375]}, "properties": {"reference_class": 4, "prediction": 4, "confidence": 0.9375, "uncertain": false, "fold": 1, "evaluated": true, "row": 32, "col": 246}}, {"type": "Feature", "geometry": {"type": "Point", "coordinates": [93.44441666666667, 26.413625]}, "properties": {"reference_class": 5, "prediction": 5, "confidence": 1.0, "uncertain": false, "fold": 1, "evaluated": true, "row": 35, "col": 221}}, {"type": "Feature", "geometry": {"type": "Point", "coordinates": [93.44958333333334, 26.413625]}, "properties": {"reference_class": 5, "prediction": 5, "confidence": 0.9875, "uncertain": false, "fold": 1, "evaluated": true, "row": 35, "col": 222}}, {"type": "Feature", "geometry": {"type": "Point", "coordinates": [93.62008333333333, 26.413625]}, "properties": {"reference_class": 4, "prediction": 4, "confidence": 1.0, "uncertain": false, "fold": 0, "evaluated": true, "row": 35, "col": 255}}, {"type": "Feature", "geometry": {"type": "Point", "coordinates": [93.43408333333333, 26.403125000000003]}, "properties": {"reference_class": 5, "prediction": 5, "confidence": 0.9, "uncertain": false, "fold": 1, "evaluated": true, "row": 37, "col": 219}}, {"type": "Feature", "geometry": {"type": "Point", "coordinates": [93.61491666666666, 26.403125000000003]}, "properties": {"reference_class": 4, "prediction": 4, "confidence": 0.6900000000000001, "uncertain": false, "fold": 0, "evaluated": true, "row": 37, "col": 254}}, {"type": "Feature", "geometry": {"type": "Point", "coordinates": [93.44958333333334, 26.397875000000003]}, "properties": {"reference_class": 5, "prediction": 5, "confidence": 0.925, "uncertain": false, "fold": 1, "evaluated": true, "row": 38, "col": 222}}, {"type": "Feature", "geometry": {"type": "Point", "coordinates": [93.50125, 26.397875000000003]}, "properties": {"reference_class": 3, "prediction": 3, "confidence": 0.8875, "uncertain": false, "fold": 1, "evaluated": true, "row": 38, "col": 232}}, {"type": "Feature", "geometry": {"type": "Point", "coordinates": [93.58391666666667, 26.397875000000003]}, "properties": {"reference_class": 4, "prediction": 4, "confidence": 1.0, "uncertain": false, "fold": 0, "evaluated": true, "row": 38, "col": 248}}, {"type": "Feature", "geometry": {"type": "Point", "coordinates": [92.35941666666666, 26.387375000000002]}, "properties": {"reference_class": 2, "prediction": 2, "confidence": 0.93125, "uncertain": false, "fold": 1, "evaluated": true, "row": 40, "col": 11}}, {"type": "Feature", "geometry": {"type": "Point", "coordinates": [93.42891666666667, 26.387375000000002]}, "properties": {"reference_class": 5, "prediction": 5, "confidence": 0.9333333333333332, "uncertain": false, "fold": 3, "evaluated": true, "row": 40, "col": 218}}, {"type": "Feature", "geometry": {"type": "Point", "coordinates": [93.29975, 26.382125000000002]}, "properties": {"reference_class": 3, "prediction": 3, "confidence": 0.9375, "uncertain": false, "fold": 0, "evaluated": true, "row": 41, "col": 193}}, {"type": "Feature", "geometry": {"type": "Point", "coordinates": [93.32041666666666, 26.366375]}, "properties": {"reference_class": 3, "prediction": 3, "confidence": 0.9791666666666667, "uncertain": false, "fold": 0, "evaluated": true, "row": 44, "col": 197}}, {"type": "Feature", "geometry": {"type": "Point", "coordinates": [93.25325, 26.361125]}, "properties": {"reference_class": 5, "prediction": 5, "confidence": 1.0, "uncertain": false, "fold": 2, "evaluated": true, "row": 45, "col": 184}}, {"type": "Feature", "geometry": {"type": "Point", "coordinates": [93.07241666666667, 26.350625]}, "properties": {"reference_class": 5, "prediction": 5, "confidence": 1.0, "uncertain": false, "fold": 0, "evaluated": true, "row": 47, "col": 149}}, {"type": "Feature", "geometry": {"type": "Point", "coordinates": [92.85025, 26.345375]}, "properties": {"reference_class": 3, "prediction": 3, "confidence": 0.95, "uncertain": false, "fold": 0, "evaluated": true, "row": 48, "col": 106}}, {"type": "Feature", "geometry": {"type": "Point", "coordinates": [93.07758333333334, 26.345375]}, "properties": {"reference_class": 5, "prediction": 5, "confidence": 0.9275, "uncertain": false, "fold": 3, "evaluated": true, "row": 48, "col": 150}}, {"type": "Feature", "geometry": {"type": "Point", "coordinates": [93.75958333333332, 26.345375]}, "properties": {"reference_class": 3, "prediction": 3, "confidence": 0.975, "uncertain": false, "fold": 0, "evaluated": true, "row": 48, "col": 282}}, {"type": "Feature", "geometry": {"type": "Point", "coordinates": [92.92775, 26.340125]}, "properties": {"reference_class": 3, "prediction": 3, "confidence": 0.975, "uncertain": false, "fold": 3, "evaluated": true, "row": 49, "col": 121}}, {"type": "Feature", "geometry": {"type": "Point", "coordinates": [93.04141666666666, 26.340125]}, "properties": {"reference_class": 5, "prediction": 5, "confidence": 0.8458333333333332, "uncertain": false, "fold": 1, "evaluated": true, "row": 49, "col": 143}}, {"type": "Feature", "geometry": {"type": "Point", "coordinates": [93.72341666666667, 26.340125]}, "properties": {"reference_class": 3, "prediction": 3, "confidence": 0.9375, "uncertain": false, "fold": 2, "evaluated": true, "row": 49, "col": 275}}, {"type": "Feature", "geometry": {"type": "Point", "coordinates": [93.05691666666667, 26.329625]}, "properties": {"reference_class": 5, "prediction": 5, "confidence": 0.975, "uncertain": false, "fold": 3, "evaluated": true, "row": 51, "col": 146}}, {"type": "Feature", "geometry": {"type": "Point", "coordinates": [93.22225, 26.329625]}, "properties": {"reference_class": 4, "prediction": 4, "confidence": 1.0, "uncertain": false, "fold": 2, "evaluated": true, "row": 51, "col": 178}}, {"type": "Feature", "geometry": {"type": "Point", "coordinates": [92.36975, 26.324375]}, "properties": {"reference_class": 2, "prediction": 2, "confidence": 0.7291666666666667, "uncertain": false, "fold": 2, "evaluated": true, "row": 52, "col": 13}}, {"type": "Feature", "geometry": {"type": "Point", "coordinates": [92.45758333333333, 26.324375]}, "properties": {"reference_class": 2, "prediction": 2, "confidence": 0.9791666666666667, "uncertain": false, "fold": 0, "evaluated": true, "row": 52, "col": 30}}, {"type": "Feature", "geometry": {"type": "Point", "coordinates": [93.06208333333333, 26.319125]}, "properties": {"reference_class": 5, "prediction": 5, "confidence": 0.975, "uncertain": false, "fold": 3, "evaluated": true, "row": 53, "col": 147}}, {"type": "Feature", "geometry": {"type": "Point", "coordinates": [93.23258333333332, 26.319125]}, "properties": {"reference_class": 4, "prediction": 4, "confidence": 0.6083333333333333, "uncertain": false, "fold": 2, "evaluated": true, "row": 53, "col": 180}}, {"type": "Feature", "geometry": {"type": "Point", "coordinates": [93.07758333333334, 26.313875000000003]}, "properties": {"reference_class": 5, "prediction": 5, "confidence": 0.9525, "uncertain": false, "fold": 3, "evaluated": true, "row": 54, "col": 150}}, {"type": "Feature", "geometry": {"type": "Point", "coordinates": [93.03625, 26.308625000000003]}, "properties": {"reference_class": 5, "prediction": 5, "confidence": 1.0, "uncertain": false, "fold": 1, "evaluated": true, "row": 55, "col": 142}}, {"type": "Feature", "geometry": {"type": "Point", "coordinates": [93.07758333333334, 26.308625000000003]}, "properties": {"reference_class": 5, "prediction": 5, "confidence": 0.9525, "uncertain": false, "fold": 3, "evaluated": true, "row": 55, "col": 150}}, {"type": "Feature", "geometry": {"type": "Point", "coordinates": [93.22741666666667, 26.308625000000003]}, "properties": {"reference_class": 4, "prediction": 4, "confidence": 1.0, "uncertain": false, "fold": 2, "evaluated": true, "row": 55, "col": 179}}, {"type": "Feature", "geometry": {"type": "Point", "coordinates": [93.06725, 26.298125000000002]}, "properties": {"reference_class": 5, "prediction": 5, "confidence": 0.9625, "uncertain": false, "fold": 1, "evaluated": true, "row": 57, "col": 148}}, {"type": "Feature", "geometry": {"type": "Point", "coordinates": [93.17058333333333, 26.298125000000002]}, "properties": {"reference_class": 1, "prediction": 1, "confidence": 1.0, "uncertain": false, "fold": 1, "evaluated": true, "row": 57, "col": 168}}, {"type": "Feature", "geometry": {"type": "Point", "coordinates": [93.04141666666666, 26.292875000000002]}, "properties": {"reference_class": 5, "prediction": 5, "confidence": 0.95625, "uncertain": false, "fold": 2, "evaluated": true, "row": 58, "col": 143}}, {"type": "Feature", "geometry": {"type": "Point", "coordinates": [93.04658333333333, 26.292875000000002]}, "properties": {"reference_class": 5, "prediction": 5, "confidence": 1.0, "uncertain": false, "fold": 1, "evaluated": true, "row": 58, "col": 144}}, {"type": "Feature", "geometry": {"type": "Point", "coordinates": [93.06725, 26.292875000000002]}, "properties": {"reference_class": 5, "prediction": 5, "confidence": 0.975, "uncertain": false, "fold": 1, "evaluated": true, "row": 58, "col": 148}}, {"type": "Feature", "geometry": {"type": "Point", "coordinates": [93.19641666666666, 26.287625000000002]}, "properties": {"reference_class": 4, "prediction": 4, "confidence": 0.975, "uncertain": false, "fold": 1, "evaluated": true, "row": 59, "col": 173}}, {"type": "Feature", "geometry": {"type": "Point", "coordinates": [93.43925, 26.287625000000002]}, "properties": {"reference_class": 1, "prediction": 1, "confidence": 0.975, "uncertain": false, "fold": 1, "evaluated": true, "row": 59, "col": 220}}, {"type": "Feature", "geometry": {"type": "Point", "coordinates": [93.51675, 26.287625000000002]}, "properties": {"reference_class": 1, "prediction": 1, "confidence": 1.0, "uncertain": false, "fold": 2, "evaluated": true, "row": 59, "col": 235}}, {"type": "Feature", "geometry": {"type": "Point", "coordinates": [92.88641666666666, 26.277125]}, "properties": {"reference_class": 3, "prediction": 3, "confidence": 0.9875, "uncertain": false, "fold": 1, "evaluated": true, "row": 61, "col": 113}}, {"type": "Feature", "geometry": {"type": "Point", "coordinates": [93.11375, 26.277125]}, "properties": {"reference_class": 1, "prediction": 1, "confidence": 0.9375, "uncertain": false, "fold": 1, "evaluated": true, "row": 61, "col": 157}}, {"type": "Feature", "geometry": {"type": "Point", "coordinates": [92.66941666666666, 26.271875]}, "properties": {"reference_class": 2, "prediction": 2, "confidence": 1.0, "uncertain": false, "fold": 1, "evaluated": true, "row": 62, "col": 71}}, {"type": "Feature", "geometry": {"type": "Point", "coordinates": [93.20675, 26.266625]}, "properties": {"reference_class": 4, "prediction": 4, "confidence": 1.0, "uncertain": false, "fold": 1, "evaluated": true, "row": 63, "col": 175}}, {"type": "Feature", "geometry": {"type": "Point", "coordinates": [93.08274999999999, 26.261375]}, "properties": {"reference_class": 1, "prediction": 1, "confidence": 1.0, "uncertain": false, "fold": 3, "evaluated": true, "row": 64, "col": 151}}, {"type": "Feature", "geometry": {"type": "Point", "coordinates": [93.24808333333333, 26.256125]}, "properties": {"reference_class": 4, "prediction": 4, "confidence": 0.9875, "uncertain": false, "fold": 1, "evaluated": true, "row": 65, "col": 183}}, {"type": "Feature", "geometry": {"type": "Point", "coordinates": [92.46791666666667, 26.250875]}, "properties": {"reference_class": 2, "prediction": 2, "confidence": 0.9375, "uncertain": false, "fold": 2, "evaluated": true, "row": 66, "col": 32}}, {"type": "Feature", "geometry": {"type": "Point", "coordinates": [92.70041666666667, 26.245625]}, "properties": {"reference_class": 4, "prediction": 4, "confidence": 0.9375, "uncertain": false, "fold": 1, "evaluated": true, "row": 67, "col": 77}}, {"type": "Feature", "geometry": {"type": "Point", "coordinates": [92.94324999999999, 26.229875]}, "properties": {"reference_class": 1, "prediction": 1, "confidence": 1.0, "uncertain": false, "fold": 1, "evaluated": true, "row": 70, "col": 124}}, {"type": "Feature", "geometry": {"type": "Point", "coordinates": [93.39274999999999, 26.224625000000003]}, "properties": {"reference_class": 1, "prediction": 1, "confidence": 0.9099999999999999, "uncertain": false, "fold": 0, "evaluated": true, "row": 71, "col": 211}}, {"type": "Feature", "geometry": {"type": "Point", "coordinates": [92.69008333333333, 26.214125000000003]}, "properties": {"reference_class": 3, "prediction": 3, "confidence": 0.7016666666666667, "uncertain": false, "fold": 0, "evaluated": true, "row": 73, "col": 75}}, {"type": "Feature", "geometry": {"type": "Point", "coordinates": [92.99491666666667, 26.208875000000003]}, "properties": {"reference_class": 4, "prediction": 4, "confidence": 0.975, "uncertain": false, "fold": 1, "evaluated": true, "row": 74, "col": 134}}, {"type": "Feature", "geometry": {"type": "Point", "coordinates": [93.10341666666666, 26.203625000000002]}, "properties": {"reference_class": 1, "prediction": 1, "confidence": 0.9875, "uncertain": false, "fold": 2, "evaluated": true, "row": 75, "col": 155}}, {"type": "Feature", "geometry": {"type": "Point", "coordinates": [93.72858333333333, 26.203625000000002]}, "properties": {"reference_class": 3, "prediction": 3, "confidence": 1.0, "uncertain": false, "fold": 3, "evaluated": true, "row": 75, "col": 276}}, {"type": "Feature", "geometry": {"type": "Point", "coordinates": [93.00525, 26.187875000000002]}, "properties": {"reference_class": 4, "prediction": 4, "confidence": 0.9875, "uncertain": false, "fold": 3, "evaluated": true, "row": 78, "col": 136}}, {"type": "Feature", "geometry": {"type": "Point", "coordinates": [92.76241666666667, 26.182625]}, "properties": {"reference_class": 3, "prediction": 3, "confidence": 1.0, "uncertain": false, "fold": 3, "evaluated": true, "row": 79, "col": 89}}, {"type": "Feature", "geometry": {"type": "Point", "coordinates": [92.59708333333333, 26.177375]}, "properties": {"reference_class": 2, "prediction": 2, "confidence": 0.93125, "uncertain": false, "fold": 1, "evaluated": true, "row": 80, "col": 57}}, {"type": "Feature", "geometry": {"type": "Point", "coordinates": [92.99491666666667, 26.177375]}, "properties": {"reference_class": 4, "prediction": 4, "confidence": 0.8125, "uncertain": false, "fold": 1, "evaluated": true, "row": 80, "col": 134}}, {"type": "Feature", "geometry": {"type": "Point", "coordinates": [93.12925, 26.172125]}, "properties": {"reference_class": 1, "prediction": 1, "confidence": 1.0, "uncertain": false, "fold": 1, "evaluated": true, "row": 81, "col": 160}}, {"type": "Feature", "geometry": {"type": "Point", "coordinates": [92.91225, 26.166875]}, "properties": {"reference_class": 4, "prediction": 4, "confidence": 0.9275, "uncertain": false, "fold": 3, "evaluated": true, "row": 82, "col": 118}}, {"type": "Feature", "geometry": {"type": "Point", "coordinates": [92.89675, 26.161625]}, "properties": {"reference_class": 4, "prediction": 4, "confidence": 0.8625, "uncertain": false, "fold": 3, "evaluated": true, "row": 83, "col": 115}}, {"type": "Feature", "geometry": {"type": "Point", "coordinates": [92.91741666666667, 26.161625]}, "properties": {"reference_class": 4, "prediction": 4, "confidence": 0.975, "uncertain": false, "fold": 3, "evaluated": true, "row": 83, "col": 119}}, {"type": "Feature", "geometry": {"type": "Point", "coordinates": [92.90708333333333, 26.151125]}, "properties": {"reference_class": 4, "prediction": 4, "confidence": 1.0, "uncertain": false, "fold": 3, "evaluated": true, "row": 85, "col": 117}}, {"type": "Feature", "geometry": {"type": "Point", "coordinates": [92.81925, 26.145875]}, "properties": {"reference_class": 3, "prediction": 3, "confidence": 0.8083333333333333, "uncertain": false, "fold": 0, "evaluated": true, "row": 86, "col": 100}}, {"type": "Feature", "geometry": {"type": "Point", "coordinates": [92.90708333333333, 26.135375]}, "properties": {"reference_class": 4, "prediction": 4, "confidence": 0.4979166666666667, "uncertain": true, "fold": 3, "evaluated": true, "row": 88, "col": 117}}, {"type": "Feature", "geometry": {"type": "Point", "coordinates": [93.80091666666667, 26.135375]}, "properties": {"reference_class": 3, "prediction": 3, "confidence": 1.0, "uncertain": false, "fold": 1, "evaluated": true, "row": 88, "col": 290}}, {"type": "Feature", "geometry": {"type": "Point", "coordinates": [92.92258333333334, 26.130125]}, "properties": {"reference_class": 4, "prediction": 4, "confidence": 0.975, "uncertain": false, "fold": 0, "evaluated": true, "row": 89, "col": 120}}, {"type": "Feature", "geometry": {"type": "Point", "coordinates": [93.33075, 26.130125]}, "properties": {"reference_class": 1, "prediction": 1, "confidence": 0.975, "uncertain": false, "fold": 2, "evaluated": true, "row": 89, "col": 199}}, {"type": "Feature", "geometry": {"type": "Point", "coordinates": [92.74175, 26.114375000000003]}, "properties": {"reference_class": 3, "prediction": 3, "confidence": 0.6666666666666667, "uncertain": false, "fold": 2, "evaluated": true, "row": 92, "col": 85}}, {"type": "Feature", "geometry": {"type": "Point", "coordinates": [93.32041666666666, 26.114375000000003]}, "properties": {"reference_class": 1, "prediction": 1, "confidence": 0.925, "uncertain": false, "fold": 2, "evaluated": true, "row": 92, "col": 197}}, {"type": "Feature", "geometry": {"type": "Point", "coordinates": [92.91741666666667, 26.109125000000002]}, "properties": {"reference_class": 4, "prediction": 4, "confidence": 1.0, "uncertain": false, "fold": 3, "evaluated": true, "row": 93, "col": 119}}, {"type": "Feature", "geometry": {"type": "Point", "coordinates": [93.78541666666666, 26.109125000000002]}, "properties": {"reference_class": 3, "prediction": 3, "confidence": 0.9116666666666667, "uncertain": false, "fold": 2, "evaluated": true, "row": 93, "col": 287}}, {"type": "Feature", "geometry": {"type": "Point", "coordinates": [92.67458333333333, 26.103875000000002]}, "properties": {"reference_class": 3, "prediction": 3, "confidence": 0.9375, "uncertain": false, "fold": 2, "evaluated": true, "row": 94, "col": 72}}, {"type": "Feature", "geometry": {"type": "Point", "coordinates": [93.29458333333334, 26.103875000000002]}, "properties": {"reference_class": 1, "prediction": 1, "confidence": 1.0, "uncertain": false, "fold": 2, "evaluated": true, "row": 94, "col": 192}}, {"type": "Feature", "geometry": {"type": "Point", "coordinates": [93.09308333333333, 26.098625000000002]}, "properties": {"reference_class": 1, "prediction": 1, "confidence": 1.0, "uncertain": false, "fold": 2, "evaluated": true, "row": 95, "col": 153}}, {"type": "Feature", "geometry": {"type": "Point", "coordinates": [92.63841666666666, 26.093375]}, "properties": {"reference_class": 3, "prediction": 3, "confidence": 0.95, "uncertain": false, "fold": 3, "evaluated": true, "row": 96, "col": 65}}, {"type": "Feature", "geometry": {"type": "Point", "coordinates": [92.90708333333333, 26.093375]}, "properties": {"reference_class": 4, "prediction": 4, "confidence": 0.9875, "uncertain": false, "fold": 2, "evaluated": true, "row": 96, "col": 117}}, {"type": "Feature", "geometry": {"type": "Point", "coordinates": [93.05175, 26.088125]}, "properties": {"reference_class": 1, "prediction": 1, "confidence": 1.0, "uncertain": false, "fold": 1, "evaluated": true, "row": 97, "col": 145}}, {"type": "Feature", "geometry": {"type": "Point", "coordinates": [93.33075, 26.088125]}, "properties": {"reference_class": 1, "prediction": 1, "confidence": 1.0, "uncertain": false, "fold": 1, "evaluated": true, "row": 97, "col": 199}}, {"type": "Feature", "geometry": {"type": "Point", "coordinates": [93.67691666666667, 26.088125]}, "properties": {"reference_class": 1, "prediction": 1, "confidence": 1.0, "uncertain": false, "fold": 3, "evaluated": true, "row": 97, "col": 266}}, {"type": "Feature", "geometry": {"type": "Point", "coordinates": [92.74175, 26.082875]}, "properties": {"reference_class": 5, "prediction": 5, "confidence": 0.9125, "uncertain": false, "fold": 2, "evaluated": true, "row": 98, "col": 85}}, {"type": "Feature", "geometry": {"type": "Point", "coordinates": [92.89675, 26.082875]}, "properties": {"reference_class": 4, "prediction": 4, "confidence": 1.0, "uncertain": false, "fold": 2, "evaluated": true, "row": 98, "col": 115}}, {"type": "Feature", "geometry": {"type": "Point", "coordinates": [92.33358333333334, 26.077625]}, "properties": {"reference_class": 2, "prediction": 2, "confidence": 0.8891666666666665, "uncertain": false, "fold": 0, "evaluated": true, "row": 99, "col": 6}}, {"type": "Feature", "geometry": {"type": "Point", "coordinates": [92.89675, 26.077625]}, "properties": {"reference_class": 4, "prediction": 4, "confidence": 0.85, "uncertain": false, "fold": 2, "evaluated": true, "row": 99, "col": 115}}, {"type": "Feature", "geometry": {"type": "Point", "coordinates": [92.97425, 26.077625]}, "properties": {"reference_class": 4, "prediction": 4, "confidence": 0.9875, "uncertain": false, "fold": 0, "evaluated": true, "row": 99, "col": 130}}, {"type": "Feature", "geometry": {"type": "Point", "coordinates": [93.63558333333333, 26.067125]}, "properties": {"reference_class": 1, "prediction": 1, "confidence": 0.975, "uncertain": false, "fold": 3, "evaluated": true, "row": 101, "col": 258}}, {"type": "Feature", "geometry": {"type": "Point", "coordinates": [92.73141666666666, 26.061875]}, "properties": {"reference_class": 5, "prediction": 5, "confidence": 0.9208333333333334, "uncertain": false, "fold": 2, "evaluated": true, "row": 102, "col": 83}}, {"type": "Feature", "geometry": {"type": "Point", "coordinates": [92.77275, 26.061875]}, "properties": {"reference_class": 5, "prediction": 5, "confidence": 0.9625, "uncertain": false, "fold": 0, "evaluated": true, "row": 102, "col": 91}}, {"type": "Feature", "geometry": {"type": "Point", "coordinates": [92.95358333333333, 26.061875]}, "properties": {"reference_class": 4, "prediction": 4, "confidence": 0.8916666666666668, "uncertain": false, "fold": 3, "evaluated": true, "row": 102, "col": 126}}, {"type": "Feature", "geometry": {"type": "Point", "coordinates": [93.58391666666667, 26.061875]}, "properties": {"reference_class": 1, "prediction": 1, "confidence": 0.975, "uncertain": false, "fold": 2, "evaluated": true, "row": 102, "col": 248}}, {"type": "Feature", "geometry": {"type": "Point", "coordinates": [92.74691666666666, 26.056625]}, "properties": {"reference_class": 5, "prediction": 5, "confidence": 0.78, "uncertain": false, "fold": 2, "evaluated": true, "row": 103, "col": 86}}, {"type": "Feature", "geometry": {"type": "Point", "coordinates": [92.76241666666667, 26.056625]}, "properties": {"reference_class": 5, "prediction": 5, "confidence": 0.9666666666666666, "uncertain": false, "fold": 0, "evaluated": true, "row": 103, "col": 89}}, {"type": "Feature", "geometry": {"type": "Point", "coordinates": [92.95875, 26.056625]}, "properties": {"reference_class": 4, "prediction": 4, "confidence": 0.9650000000000001, "uncertain": false, "fold": 3, "evaluated": true, "row": 103, "col": 127}}, {"type": "Feature", "geometry": {"type": "Point", "coordinates": [93.18091666666666, 26.056625]}, "properties": {"reference_class": 1, "prediction": 1, "confidence": 1.0, "uncertain": false, "fold": 0, "evaluated": true, "row": 103, "col": 170}}, {"type": "Feature", "geometry": {"type": "Point", "coordinates": [92.32841666666667, 26.046125]}, "properties": {"reference_class": 2, "prediction": 2, "confidence": 0.9125, "uncertain": false, "fold": 3, "evaluated": true, "row": 105, "col": 5}}, {"type": "Feature", "geometry": {"type": "Point", "coordinates": [92.73141666666666, 26.046125]}, "properties": {"reference_class": 5, "prediction": 5, "confidence": 1.0, "uncertain": false, "fold": 1, "evaluated": true, "row": 105, "col": 83}}, {"type": "Feature", "geometry": {"type": "Point", "coordinates": [92.75208333333333, 26.046125]}, "properties": {"reference_class": 5, "prediction": 5, "confidence": 1.0, "uncertain": false, "fold": 1, "evaluated": true, "row": 105, "col": 87}}, {"type": "Feature", "geometry": {"type": "Point", "coordinates": [92.77791666666667, 26.046125]}, "properties": {"reference_class": 5, "prediction": 5, "confidence": 0.99375, "uncertain": false, "fold": 2, "evaluated": true, "row": 105, "col": 92}}, {"type": "Feature", "geometry": {"type": "Point", "coordinates": [93.74408333333334, 26.046125]}, "properties": {"reference_class": 3, "prediction": 3, "confidence": 0.9875, "uncertain": false, "fold": 3, "evaluated": true, "row": 105, "col": 279}}, {"type": "Feature", "geometry": {"type": "Point", "coordinates": [92.75725, 26.040875]}, "properties": {"reference_class": 5, "prediction": 5, "confidence": 0.9875, "uncertain": false, "fold": 2, "evaluated": true, "row": 106, "col": 88}}, {"type": "Feature", "geometry": {"type": "Point", "coordinates": [92.76758333333333, 26.040875]}, "properties": {"reference_class": 5, "prediction": 5, "confidence": 0.9583333333333334, "uncertain": false, "fold": 2, "evaluated": true, "row": 106, "col": 90}}, {"type": "Feature", "geometry": {"type": "Point", "coordinates": [92.77275, 26.035625000000003]}, "properties": {"reference_class": 5, "prediction": 5, "confidence": 0.7383333333333333, "uncertain": false, "fold": 2, "evaluated": true, "row": 107, "col": 91}}, {"type": "Feature", "geometry": {"type": "Point", "coordinates": [93.03108333333333, 26.035625000000003]}, "properties": {"reference_class": 1, "prediction": 1, "confidence": 0.875, "uncertain": false, "fold": 0, "evaluated": true, "row": 107, "col": 141}}, {"type": "Feature", "geometry": {"type": "Point", "coordinates": [93.57875, 26.035625000000003]}, "properties": {"reference_class": 1, "prediction": 1, "confidence": 0.98125, "uncertain": false, "fold": 0, "evaluated": true, "row": 107, "col": 247}}, {"type": "Feature", "geometry": {"type": "Point", "coordinates": [92.67458333333333, 26.030375000000003]}, "properties": {"reference_class": 3, "prediction": 3, "confidence": 0.9333333333333332, "uncertain": false, "fold": 0, "evaluated": true, "row": 108, "col": 72}}, {"type": "Feature", "geometry": {"type": "Point", "coordinates": [93.00525, 25.998875]}, "properties": {"reference_class": 1, "prediction": 1, "confidence": 0.975, "uncertain": false, "fold": 1, "evaluated": true, "row": 114, "col": 136}}, {"type": "Feature", "geometry": {"type": "Point", "coordinates": [92.92775, 25.993625]}, "properties": {"reference_class": 1, "prediction": 1, "confidence": 0.985, "uncertain": false, "fold": 3, "evaluated": true, "row": 115, "col": 121}}, {"type": "Feature", "geometry": {"type": "Point", "coordinates": [93.03108333333333, 25.993625]}, "properties": {"reference_class": 1, "prediction": 1, "confidence": 0.875, "uncertain": false, "fold": 1, "evaluated": true, "row": 115, "col": 141}}, {"type": "Feature", "geometry": {"type": "Point", "coordinates": [93.84224999999999, 25.993625]}, "properties": {"reference_class": 3, "prediction": 3, "confidence": 0.7958333333333333, "uncertain": false, "fold": 0, "evaluated": true, "row": 115, "col": 298}}, {"type": "Feature", "geometry": {"type": "Point", "coordinates": [92.73658333333333, 25.977875]}, "properties": {"reference_class": 3, "prediction": 3, "confidence": 0.9625, "uncertain": false, "fold": 3, "evaluated": true, "row": 118, "col": 84}}, {"type": "Feature", "geometry": {"type": "Point", "coordinates": [93.28941666666667, 25.977875]}, "properties": {"reference_class": 1, "prediction": 1, "confidence": 1.0, "uncertain": false, "fold": 2, "evaluated": true, "row": 118, "col": 191}}, {"type": "Feature", "geometry": {"type": "Point", "coordinates": [93.72858333333333, 25.977875]}, "properties": {"reference_class": 3, "prediction": 3, "confidence": 1.0, "uncertain": false, "fold": 3, "evaluated": true, "row": 118, "col": 276}}, {"type": "Feature", "geometry": {"type": "Point", "coordinates": [92.61258333333333, 25.972625]}, "properties": {"reference_class": 3, "prediction": 3, "confidence": 0.79375, "uncertain": false, "fold": 3, "evaluated": true, "row": 119, "col": 60}}, {"type": "Feature", "geometry": {"type": "Point", "coordinates": [93.38241666666666, 25.967375]}, "properties": {"reference_class": 1, "prediction": 1, "confidence": 1.0, "uncertain": false, "fold": 0, "evaluated": true, "row": 120, "col": 209}}, {"type": "Feature", "geometry": {"type": "Point", "coordinates": [93.32558333333333, 25.951625]}, "properties": {"reference_class": 1, "prediction": 1, "confidence": 0.9875, "uncertain": false, "fold": 2, "evaluated": true, "row": 123, "col": 198}}, {"type": "Feature", "geometry": {"type": "Point", "coordinates": [93.63041666666666, 25.941125000000003]}, "properties": {"reference_class": 1, "prediction": 1, "confidence": 1.0, "uncertain": false, "fold": 1, "evaluated": true, "row": 125, "col": 257}}, {"type": "Feature", "geometry": {"type": "Point", "coordinates": [93.05175, 25.935875000000003]}, "properties": {"reference_class": 1, "prediction": 1, "confidence": 1.0, "uncertain": false, "fold": 3, "evaluated": true, "row": 126, "col": 145}}, {"type": "Feature", "geometry": {"type": "Point", "coordinates": [93.14991666666667, 25.935875000000003]}, "properties": {"reference_class": 4, "prediction": 4, "confidence": 0.9916666666666668, "uncertain": false, "fold": 0, "evaluated": true, "row": 126, "col": 164}}, {"type": "Feature", "geometry": {"type": "Point", "coordinates": [93.17575, 25.935875000000003]}, "properties": {"reference_class": 4, "prediction": 4, "confidence": 0.9833333333333332, "uncertain": false, "fold": 1, "evaluated": true, "row": 126, "col": 169}}, {"type": "Feature", "geometry": {"type": "Point", "coordinates": [93.14475, 25.930625000000003]}, "properties": {"reference_class": 4, "prediction": 4, "confidence": 1.0, "uncertain": false, "fold": 0, "evaluated": true, "row": 127, "col": 163}}, {"type": "Feature", "geometry": {"type": "Point", "coordinates": [93.17575, 25.930625000000003]}, "properties": {"reference_class": 4, "prediction": 4, "confidence": 0.9583333333333333, "uncertain": false, "fold": 1, "evaluated": true, "row": 127, "col": 169}}, {"type": "Feature", "geometry": {"type": "Point", "coordinates": [93.40308333333333, 25.925375000000003]}, "properties": {"reference_class": 1, "prediction": 1, "confidence": 0.985, "uncertain": false, "fold": 3, "evaluated": true, "row": 128, "col": 213}}, {"type": "Feature", "geometry": {"type": "Point", "coordinates": [92.83475, 25.920125000000002]}, "properties": {"reference_class": 1, "prediction": 1, "confidence": 1.0, "uncertain": false, "fold": 2, "evaluated": true, "row": 129, "col": 103}}, {"type": "Feature", "geometry": {"type": "Point", "coordinates": [92.59708333333333, 25.909625000000002]}, "properties": {"reference_class": 2, "prediction": 2, "confidence": 0.9016666666666666, "uncertain": false, "fold": 0, "evaluated": true, "row": 131, "col": 57}}, {"type": "Feature", "geometry": {"type": "Point", "coordinates": [93.17058333333333, 25.909625000000002]}, "properties": {"reference_class": 4, "prediction": 4, "confidence": 1.0, "uncertain": false, "fold": 0, "evaluated": true, "row": 131, "col": 168}}, {"type": "Feature", "geometry": {"type": "Point", "coordinates": [93.11891666666666, 25.904375]}, "properties": {"reference_class": 4, "prediction": 4, "confidence": 0.8, "uncertain": false, "fold": 1, "evaluated": true, "row": 132, "col": 158}}, {"type": "Feature", "geometry": {"type": "Point", "coordinates": [93.62008333333333, 25.893875]}, "properties": {"reference_class": 1, "prediction": 1, "confidence": 1.0, "uncertain": false, "fold": 0, "evaluated": true, "row": 134, "col": 255}}, {"type": "Feature", "geometry": {"type": "Point", "coordinates": [92.92775, 25.883375]}, "properties": {"reference_class": 1, "prediction": 1, "confidence": 1.0, "uncertain": false, "fold": 1, "evaluated": true, "row": 136, "col": 121}}, {"type": "Feature", "geometry": {"type": "Point", "coordinates": [93.36691666666667, 25.883375]}, "properties": {"reference_class": 1, "prediction": 1, "confidence": 0.9583333333333333, "uncertain": false, "fold": 3, "evaluated": true, "row": 136, "col": 206}}, {"type": "Feature", "geometry": {"type": "Point", "coordinates": [92.96391666666666, 25.878125]}, "properties": {"reference_class": 1, "prediction": 1, "confidence": 0.975, "uncertain": false, "fold": 3, "evaluated": true, "row": 137, "col": 128}}, {"type": "Feature", "geometry": {"type": "Point", "coordinates": [93.77508333333333, 25.872875]}, "properties": {"reference_class": 3, "prediction": 3, "confidence": 0.9375, "uncertain": false, "fold": 1, "evaluated": true, "row": 138, "col": 285}}, {"type": "Feature", "geometry": {"type": "Point", "coordinates": [92.31291666666667, 25.867625]}, "properties": {"reference_class": 2, "prediction": 2, "confidence": 0.725, "uncertain": false, "fold": 0, "evaluated": true, "row": 139, "col": 2}}, {"type": "Feature", "geometry": {"type": "Point", "coordinates": [93.26358333333333, 25.867625]}, "properties": {"reference_class": 1, "prediction": 1, "confidence": 0.9, "uncertain": false, "fold": 1, "evaluated": true, "row": 139, "col": 186}}, {"type": "Feature", "geometry": {"type": "Point", "coordinates": [93.37725, 25.851875]}, "properties": {"reference_class": 4, "prediction": 4, "confidence": 0.9708333333333332, "uncertain": false, "fold": 0, "evaluated": true, "row": 142, "col": 208}}, {"type": "Feature", "geometry": {"type": "Point", "coordinates": [93.17058333333333, 25.846625000000003]}, "properties": {"reference_class": 1, "prediction": 1, "confidence": 1.0, "uncertain": false, "fold": 1, "evaluated": true, "row": 143, "col": 168}}, {"type": "Feature", "geometry": {"type": "Point", "coordinates": [93.58391666666667, 25.846625000000003]}, "properties": {"reference_class": 3, "prediction": 3, "confidence": 0.7375, "uncertain": false, "fold": 1, "evaluated": true, "row": 143, "col": 248}}, {"type": "Feature", "geometry": {"type": "Point", "coordinates": [93.66658333333334, 25.841375000000003]}, "properties": {"reference_class": 3, "prediction": 3, "confidence": 0.975, "uncertain": false, "fold": 2, "evaluated": true, "row": 144, "col": 264}}, {"type": "Feature", "geometry": {"type": "Point", "coordinates": [92.61775, 25.836125000000003]}, "properties": {"reference_class": 2, "prediction": 2, "confidence": 0.9916666666666666, "uncertain": false, "fold": 1, "evaluated": true, "row": 145, "col": 61}}, {"type": "Feature", "geometry": {"type": "Point", "coordinates": [93.23774999999999, 25.836125000000003]}, "properties": {"reference_class": 1, "prediction": 1, "confidence": 1.0, "uncertain": false, "fold": 2, "evaluated": true, "row": 145, "col": 181}}, {"type": "Feature", "geometry": {"type": "Point", "coordinates": [93.59941666666667, 25.815125000000002]}, "properties": {"reference_class": 3, "prediction": 3, "confidence": 0.8375, "uncertain": false, "fold": 1, "evaluated": true, "row": 149, "col": 251}}, {"type": "Feature", "geometry": {"type": "Point", "coordinates": [92.60225, 25.809875]}, "properties": {"reference_class": 2, "prediction": 2, "confidence": 1.0, "uncertain": false, "fold": 1, "evaluated": true, "row": 150, "col": 58}}, {"type": "Feature", "geometry": {"type": "Point", "coordinates": [93.61491666666666, 25.809875]}, "properties": {"reference_class": 3, "prediction": 3, "confidence": 1.0, "uncertain": false, "fold": 1, "evaluated": true, "row": 150, "col": 254}}, {"type": "Feature", "geometry": {"type": "Point", "coordinates": [93.65625, 25.809875]}, "properties": {"reference_class": 5, "prediction": 5, "confidence": 0.7916666666666667, "uncertain": false, "fold": 0, "evaluated": true, "row": 150, "col": 262}}, {"type": "Feature", "geometry": {"type": "Point", "coordinates": [93.07758333333334, 25.804625]}, "properties": {"reference_class": 1, "prediction": 1, "confidence": 1.0, "uncertain": false, "fold": 0, "evaluated": true, "row": 151, "col": 150}}, {"type": "Feature", "geometry": {"type": "Point", "coordinates": [93.38241666666666, 25.804625]}, "properties": {"reference_class": 4, "prediction": 4, "confidence": 0.9083333333333332, "uncertain": false, "fold": 1, "evaluated": true, "row": 151, "col": 209}}, {"type": "Feature", "geometry": {"type": "Point", "coordinates": [93.51675, 25.804625]}, "properties": {"reference_class": 3, "prediction": 3, "confidence": 0.9625, "uncertain": false, "fold": 3, "evaluated": true, "row": 151, "col": 235}}, {"type": "Feature", "geometry": {"type": "Point", "coordinates": [92.77275, 25.794125]}, "properties": {"reference_class": 3, "prediction": 3, "confidence": 0.9375, "uncertain": false, "fold": 1, "evaluated": true, "row": 153, "col": 91}}, {"type": "Feature", "geometry": {"type": "Point", "coordinates": [92.83475, 25.794125]}, "properties": {"reference_class": 3, "prediction": 3, "confidence": 0.85625, "uncertain": false, "fold": 1, "evaluated": true, "row": 153, "col": 103}}, {"type": "Feature", "geometry": {"type": "Point", "coordinates": [92.52991666666667, 25.788875]}, "properties": {"reference_class": 2, "prediction": 2, "confidence": 0.7, "uncertain": false, "fold": 1, "evaluated": true, "row": 154, "col": 44}}, {"type": "Feature", "geometry": {"type": "Point", "coordinates": [92.57124999999999, 25.773125]}, "properties": {"reference_class": 2, "prediction": 2, "confidence": 0.9416666666666668, "uncertain": false, "fold": 3, "evaluated": true, "row": 157, "col": 52}}, {"type": "Feature", "geometry": {"type": "Point", "coordinates": [92.58158333333333, 25.762625]}, "properties": {"reference_class": 2, "prediction": 2, "confidence": 0.875, "uncertain": false, "fold": 3, "evaluated": true, "row": 159, "col": 54}}, {"type": "Feature", "geometry": {"type": "Point", "coordinates": [92.94841666666666, 25.762625]}, "properties": {"reference_class": 3, "prediction": 3, "confidence": 0.9333333333333333, "uncertain": false, "fold": 0, "evaluated": true, "row": 159, "col": 125}}, {"type": "Feature", "geometry": {"type": "Point", "coordinates": [93.42375, 25.762625]}, "properties": {"reference_class": 3, "prediction": 3, "confidence": 0.825, "uncertain": false, "fold": 0, "evaluated": true, "row": 159, "col": 217}}, {"type": "Feature", "geometry": {"type": "Point", "coordinates": [93.22225, 25.752125000000003]}, "properties": {"reference_class": 1, "prediction": 1, "confidence": 1.0, "uncertain": false, "fold": 1, "evaluated": true, "row": 161, "col": 178}}, {"type": "Feature", "geometry": {"type": "Point", "coordinates": [93.14991666666667, 25.741625000000003]}, "properties": {"reference_class": 3, "prediction": 3, "confidence": 0.9366666666666668, "uncertain": false, "fold": 2, "evaluated": true, "row": 163, "col": 164}}, {"type": "Feature", "geometry": {"type": "Point", "coordinates": [92.32325, 25.704875]}, "properties": {"reference_class": 2, "prediction": 2, "confidence": 1.0, "uncertain": false, "fold": 2, "evaluated": true, "row": 170, "col": 4}}, {"type": "Feature", "geometry": {"type": "Point", "coordinates": [93.48058333333333, 25.699625]}, "properties": {"reference_class": 3, "prediction": 3, "confidence": 0.79125, "uncertain": false, "fold": 0, "evaluated": true, "row": 171, "col": 228}}, {"type": "Feature", "geometry": {"type": "Point", "coordinates": [92.71074999999999, 25.678625]}, "properties": {"reference_class": 2, "prediction": 2, "confidence": 0.9875, "uncertain": false, "fold": 3, "evaluated": true, "row": 175, "col": 79}}, {"type": "Feature", "geometry": {"type": "Point", "coordinates": [92.53508333333333, 25.673375]}, "properties": {"reference_class": 2, "prediction": 2, "confidence": 0.975, "uncertain": false, "fold": 0, "evaluated": true, "row": 176, "col": 45}}, {"type": "Feature", "geometry": {"type": "Point", "coordinates": [92.68491666666667, 25.673375]}, "properties": {"reference_class": 2, "prediction": 2, "confidence": 0.9625, "uncertain": false, "fold": 3, "evaluated": true, "row": 176, "col": 74}}, {"type": "Feature", "geometry": {"type": "Point", "coordinates": [93.23774999999999, 25.668125]}, "properties": {"reference_class": 3, "prediction": 3, "confidence": 0.9183333333333333, "uncertain": false, "fold": 2, "evaluated": true, "row": 177, "col": 181}}, {"type": "Feature", "geometry": {"type": "Point", "coordinates": [93.72341666666667, 25.668125]}, "properties": {"reference_class": 2, "prediction": 2, "confidence": 0.8625, "uncertain": false, "fold": 0, "evaluated": true, "row": 177, "col": 275}}, {"type": "Feature", "geometry": {"type": "Point", "coordinates": [92.41624999999999, 25.662875]}, "properties": {"reference_class": 2, "prediction": 2, "confidence": 0.9875, "uncertain": false, "fold": 2, "evaluated": true, "row": 178, "col": 22}}, {"type": "Feature", "geometry": {"type": "Point", "coordinates": [92.70041666666667, 25.662875]}, "properties": {"reference_class": 2, "prediction": 2, "confidence": 0.975, "uncertain": false, "fold": 3, "evaluated": true, "row": 178, "col": 77}}, {"type": "Feature", "geometry": {"type": "Point", "coordinates": [93.00008333333334, 25.652375000000003]}, "properties": {"reference_class": 3, "prediction": 3, "confidence": 0.9875, "uncertain": false, "fold": 3, "evaluated": true, "row": 180, "col": 135}}, {"type": "Feature", "geometry": {"type": "Point", "coordinates": [92.48858333333332, 25.647125000000003]}, "properties": {"reference_class": 2, "prediction": 2, "confidence": 0.86, "uncertain": false, "fold": 3, "evaluated": true, "row": 181, "col": 36}}, {"type": "Feature", "geometry": {"type": "Point", "coordinates": [92.89158333333333, 25.647125000000003]}, "properties": {"reference_class": 2, "prediction": 2, "confidence": 0.975, "uncertain": false, "fold": 2, "evaluated": true, "row": 181, "col": 114}}, {"type": "Feature", "geometry": {"type": "Point", "coordinates": [93.44958333333334, 25.647125000000003]}, "properties": {"reference_class": 3, "prediction": 3, "confidence": 1.0, "uncertain": false, "fold": 1, "evaluated": true, "row": 181, "col": 222}}, {"type": "Feature", "geometry": {"type": "Point", "coordinates": [93.68208333333332, 25.641875000000002]}, "properties": {"reference_class": 2, "prediction": 2, "confidence": 0.975, "uncertain": false, "fold": 0, "evaluated": true, "row": 182, "col": 267}}, {"type": "Feature", "geometry": {"type": "Point", "coordinates": [92.43175, 25.636625000000002]}, "properties": {"reference_class": 2, "prediction": 2, "confidence": 0.9330357142857142, "uncertain": false, "fold": 1, "evaluated": true, "row": 183, "col": 25}}, {"type": "Feature", "geometry": {"type": "Point", "coordinates": [93.18091666666666, 25.610375]}, "properties": {"reference_class": 3, "prediction": 3, "confidence": 1.0, "uncertain": false, "fold": 1, "evaluated": true, "row": 188, "col": 170}}, {"type": "Feature", "geometry": {"type": "Point", "coordinates": [93.41341666666666, 25.605125]}, "properties": {"reference_class": 2, "prediction": 2, "confidence": 0.95, "uncertain": false, "fold": 2, "evaluated": true, "row": 189, "col": 215}}, {"type": "Feature", "geometry": {"type": "Point", "coordinates": [92.51958333333333, 25.589375]}, "properties": {"reference_class": 2, "prediction": 2, "confidence": 1.0, "uncertain": false, "fold": 1, "evaluated": true, "row": 192, "col": 42}}]}