{"type": "FeatureCollection", "name": "model_samples", "crs_of_coordinates": "EPSG:4326", "source_crs": "EPSG:4326", "description": "Model samples with spatially cross-validated predictions; synthetic development output", "features": [{"type": "Feature", "geometry": {"type": "Point", "coordinates": [92.32841666666667, 26.555375]}, "properties": {"reference_class": 2, "prediction": 2, "evaluated": true, "fold": 0, "row": 8, "col": 5}}, {"type": "Feature", "geometry": {"type": "Point", "coordinates": [93.58391666666667, 26.550125]}, "properties": {"reference_class": 2, "prediction": 2, "evaluated": true, "fold": 2, "row": 9, "col": 248}}, {"type": "Feature", "geometry": {"type": "Point", "coordinates": [93.52191666666667, 26.534375]}, "properties": {"reference_class": 2, "prediction": 2, "evaluated": true, "fold": 1, "row": 12, "col": 236}}, {"type": "Feature", "geometry": {"type": "Point", "coordinates": [93.37725, 26.513375]}, "properties": {"reference_class": 2, "prediction": 2, "evaluated": true, "fold": 1, "row": 16, "col": 208}}, {"type": "Feature", "geometry": {"type": "Point", "coordinates": [93.52191666666667, 26.502875000000003]}, "properties": {"reference_class": 2, "prediction": 2, "evaluated": true, "fold": 1, "row": 18, "col": 236}}, {"type": "Feature", "geometry": {"type": "Point", "coordinates": [93.43408333333333, 26.487125000000002]}, "properties": {"reference_class": 2, "prediction": 2, "evaluated": true, "fold": 1, "row": 21, "col": 219}}, {"type": "Feature", "geometry": {"type": "Point", "coordinates": [93.20158333333333, 26.445125]}, "properties": {"reference_class": 2, "prediction": 2, "evaluated": true, "fold": 2, "row": 29, "col": 174}}, {"type": "Feature", "geometry": {"type": "Point", "coordinates": [92.90708333333333, 26.439875]}, "properties": {"reference_class": 2, "prediction": 2, "evaluated": true, "fold": 1, "row": 30, "col": 117}}, {"type": "Feature", "geometry": {"type": "Point", "coordinates": [93.59425, 26.439875]}, "properties": {"reference_class": 4, "prediction": 4, "evaluated": true, "fold": 0, "row": 30, "col": 250}}, {"type": "Feature", "geometry": {"type": "Point", "coordinates": [92.58158333333333, 26.434625]}, "properties": {"reference_class": 2, "prediction": 2, "evaluated": true, "fold": 0, "row": 31, "col": 54}}, {"type": "Feature", "geometry": {"type": "Point", "coordinates": [93.39791666666666, 26.434625]}, "properties": {"reference_class": 3, "prediction": 3, "evaluated": true, "fold": 0, "row": 31, "col": 212}}, {"type": "Feature", "geometry": {"type": "Point", "coordinates": [93.56325, 26.434625]}, "properties": {"reference_class": 4, "prediction": 4, "evaluated": true, "fold": 2, "row": 31, "col": 244}}, {"type": "Feature", "geometry": {"type": "Point", "coordinates": [93.27391666666666, 26.429375]}, "properties": {"reference_class": 3, "prediction": 3, "evaluated": true, "fold": 2, "row": 32, "col": 188}}, {"type": "Feature", "geometry": {"type": "Point", "coordinates": [93.56325, 26.429375]}, "properties": {"reference_class": 4, "prediction": 4, "evaluated": true, "fold": 1, "row": 32, "col": 244}}, {"type": "Feature", "geometry": {"type": "Point", "coordinates": [93.44441666666667, 26.413625]}, "properties": {"reference_class": 5, "prediction": 5, "evaluated": true, "fold": 1, "row": 35, "col": 221}}, {"type": "Feature", "geometry": {"type": "Point", "coordinates": [93.44958333333334, 26.413625]}, "properties": {"reference_class": 5, "prediction": 5, "evaluated": true, "fold": 1, "row": 35, "col": 222}}, {"type": "Feature", "geometry": {"type": "Point", "coordinates": [93.62008333333333, 26.413625]}, "properties": {"reference_class": 4, "prediction": 4, "evaluated": true, "fold": 2, "row": 35, "col": 255}}, {"type": "Feature", "geometry": {"type": "Point", "coordinates": [92.33358333333334, 26.408375000000003]}, "properties": {"reference_class": 2, "prediction": 2, "evaluated": true, "fold": 1, "row": 36, "col": 6}}, {"type": "Feature", "geometry": {"type": "Point", "coordinates": [92.44725, 26.403125000000003]}, "properties": {"reference_class": 2, "prediction": 2, "evaluated": true, "fold": 0, "row": 37, "col": 28}}, {"type": "Feature", "geometry": {"type": "Point", "coordinates": [93.06208333333333, 26.403125000000003]}, "properties": {"reference_class": 3, "prediction": 3, "evaluated": true, "fold": 2, "row": 37, "col": 147}}, {"type": "Feature", "geometry": {"type": "Point", "coordinates": [93.43408333333333, 26.403125000000003]}, "properties": {"reference_class": 5, "prediction": 5, "evaluated": true, "fold": 1, "row": 37, "col": 219}}, {"type": "Feature", "geometry": {"type": "Point", "coordinates": [93.44958333333334, 26.397875000000003]}, "properties": {"reference_class": 5, "prediction": 5, "evaluated": true, "fold": 1, "row": 38, "col": 222}}, {"type": "Feature", "geometry": {"type": "Point", "coordinates": [93.55291666666666, 26.397875000000003]}, "properties": {"reference_class": 3, "prediction": 3, "evaluated": true, "fold": 1, "row": 38, "col": 242}}, {"type": "Feature", "geometry": {"type": "Point", "coordinates": [93.58391666666667, 26.397875000000003]}, "properties": {"reference_class": 4, "prediction": 4, "evaluated": true, "fold": 2, "row": 38, "col": 248}}, {"type": "Feature", "geometry": {"type": "Point", "coordinates": [93.42891666666667, 26.387375000000002]}, "properties": {"reference_class": 5, "prediction": 5, "evaluated": true, "fold": 0, "row": 40, "col": 218}}, {"type": "Feature", "geometry": {"type": "Point", "coordinates": [93.00525, 26.371625]}, "properties": {"reference_class": 3, "prediction": 3, "evaluated": true, "fold": 2, "row": 43, "col": 136}}, {"type": "Feature", "geometry": {"type": "Point", "coordinates": [92.68491666666667, 26.361125]}, "properties": {"reference_class": 2, "prediction": 2, "evaluated": true, "fold": 0, "row": 45, "col": 74}}, {"type": "Feature", "geometry": {"type": "Point", "coordinates": [93.25325, 26.361125]}, "properties": {"reference_class": 5, "prediction": 5, "evaluated": true, "fold": 2, "row": 45, "col": 184}}, {"type": "Feature", "geometry": {"type": "Point", "coordinates": [93.07241666666667, 26.350625]}, "properties": {"reference_class": 5, "prediction": 5, "evaluated": true, "fold": 0, "row": 47, "col": 149}}, {"type": "Feature", "geometry": {"type": "Point", "coordinates": [93.07758333333334, 26.345375]}, "properties": {"reference_class": 5, "prediction": 5, "evaluated": true, "fold": 1, "row": 48, "col": 150}}, {"type": "Feature", "geometry": {"type": "Point", "coordinates": [93.04141666666666, 26.340125]}, "properties": {"reference_class": 5, "prediction": 5, "evaluated": true, "fold": 1, "row": 49, "col": 143}}, {"type": "Feature", "geometry": {"type": "Point", "coordinates": [93.05691666666667, 26.329625]}, "properties": {"reference_class": 5, "prediction": 5, "evaluated": true, "fold": 1, "row": 51, "col": 146}}, {"type": "Feature", "geometry": {"type": "Point", "coordinates": [93.22225, 26.329625]}, "properties": {"reference_class": 4, "prediction": 4, "evaluated": true, "fold": 0, "row": 51, "col": 178}}, {"type": "Feature", "geometry": {"type": "Point", "coordinates": [93.06208333333333, 26.319125]}, "properties": {"reference_class": 5, "prediction": 5, "evaluated": true, "fold": 1, "row": 53, "col": 147}}, {"type": "Feature", "geometry": {"type": "Point", "coordinates": [93.23258333333332, 26.319125]}, "properties": {"reference_class": 4, "prediction": 4, "evaluated": true, "fold": 0, "row": 53, "col": 180}}, {"type": "Feature", "geometry": {"type": "Point", "coordinates": [92.70041666666667, 26.313875000000003]}, "properties": {"reference_class": 2, "prediction": 2, "evaluated": true, "fold": 2, "row": 54, "col": 77}}, {"type": "Feature", "geometry": {"type": "Point", "coordinates": [93.07758333333334, 26.313875000000003]}, "properties": {"reference_class": 5, "prediction": 5, "evaluated": true, "fold": 1, "row": 54, "col": 150}}, {"type": "Feature", "geometry": {"type": "Point", "coordinates": [93.03625, 26.308625000000003]}, "properties": {"reference_class": 5, "prediction": 5, "evaluated": true, "fold": 1, "row": 55, "col": 142}}, {"type": "Feature", "geometry": {"type": "Point", "coordinates": [93.07758333333334, 26.308625000000003]}, "properties": {"reference_class": 5, "prediction": 5, "evaluated": true, "fold": 1, "row": 55, "col": 150}}, {"type": "Feature", "geometry": {"type": "Point", "coordinates": [93.22741666666667, 26.308625000000003]}, "properties": {"reference_class": 4, "prediction": 4, "evaluated": true, "fold": 0, "row": 55, "col": 179}}, {"type": "Feature", "geometry": {"type": "Point", "coordinates": [92.83991666666667, 26.298125000000002]}, "properties": {"reference_class": 3, "prediction": 3, "evaluated": true, "fold": 1, "row": 57, "col": 104}}, {"type": "Feature", "geometry": {"type": "Point", "coordinates": [93.06725, 26.298125000000002]}, "properties": {"reference_class": 5, "prediction": 5, "evaluated": true, "fold": 1, "row": 57, "col": 148}}, {"type": "Feature", "geometry": {"type": "Point", "coordinates": [93.04141666666666, 26.292875000000002]}, "properties": {"reference_class": 5, "prediction": 5, "evaluated": true, "fold": 0, "row": 58, "col": 143}}, {"type": "Feature", "geometry": {"type": "Point", "coordinates": [93.04658333333333, 26.292875000000002]}, "properties": {"reference_class": 5, "prediction": 5, "evaluated": true, "fold": 1, "row": 58, "col": 144}}, {"type": "Feature", "geometry": {"type": "Point", "coordinates": [93.06725, 26.292875000000002]}, "properties": {"reference_class": 5, "prediction": 5, "evaluated": true, "fold": 1, "row": 58, "col": 148}}, {"type": "Feature", "geometry": {"type": "Point", "coordinates": [93.19641666666666, 26.287625000000002]}, "properties": {"reference_class": 4, "prediction": 4, "evaluated": true, "fold": 1, "row": 59, "col": 173}}, {"type": "Feature", "geometry": {"type": "Point", "coordinates": [93.45991666666666, 26.287625000000002]}, "properties": {"reference_class": 1, "prediction": 1, "evaluated": true, "fold": 0, "row": 59, "col": 224}}, {"type": "Feature", "geometry": {"type": "Point", "coordinates": [93.57358333333333, 26.287625000000002]}, "properties": {"reference_class": 1, "prediction": 1, "evaluated": true, "fold": 1, "row": 59, "col": 246}}, {"type": "Feature", "geometry": {"type": "Point", "coordinates": [93.79058333333333, 26.282375000000002]}, "properties": {"reference_class": 3, "prediction": 3, "evaluated": true, "fold": 2, "row": 60, "col": 288}}, {"type": "Feature", "geometry": {"type": "Point", "coordinates": [93.83708333333333, 26.282375000000002]}, "properties": {"reference_class": 3, "prediction": 3, "evaluated": true, "fold": 2, "row": 60, "col": 297}}, {"type": "Feature", "geometry": {"type": "Point", "coordinates": [93.30491666666667, 26.277125]}, "properties": {"reference_class": 1, "prediction": 1, "evaluated": true, "fold": 1, "row": 61, "col": 194}}, {"type": "Feature", "geometry": {"type": "Point", "coordinates": [92.66941666666666, 26.271875]}, "properties": {"reference_class": 2, "prediction": 2, "evaluated": true, "fold": 2, "row": 62, "col": 71}}, {"type": "Feature", "geometry": {"type": "Point", "coordinates": [92.40075, 26.261375]}, "properties": {"reference_class": 2, "prediction": 2, "evaluated": true, "fold": 0, "row": 64, "col": 19}}, {"type": "Feature", "geometry": {"type": "Point", "coordinates": [93.47541666666666, 26.261375]}, "properties": {"reference_class": 1, "prediction": 1, "evaluated": true, "fold": 0, "row": 64, "col": 227}}, {"type": "Feature", "geometry": {"type": "Point", "coordinates": [93.24808333333333, 26.256125]}, "properties": {"reference_class": 4, "prediction": 4, "evaluated": true, "fold": 2, "row": 65, "col": 183}}, {"type": "Feature", "geometry": {"type": "Point", "coordinates": [92.43691666666666, 26.245625]}, "properties": {"reference_class": 2, "prediction": 2, "evaluated": true, "fold": 2, "row": 67, "col": 26}}, {"type": "Feature", "geometry": {"type": "Point", "coordinates": [92.82441666666666, 26.235125]}, "properties": {"reference_class": 3, "prediction": 3, "evaluated": true, "fold": 2, "row": 69, "col": 101}}, {"type": "Feature", "geometry": {"type": "Point", "coordinates": [93.09825, 26.229875]}, "properties": {"reference_class": 1, "prediction": 1, "evaluated": true, "fold": 0, "row": 70, "col": 154}}, {"type": "Feature", "geometry": {"type": "Point", "coordinates": [92.99491666666667, 26.219375000000003]}, "properties": {"reference_class": 1, "prediction": 1, "evaluated": true, "fold": 0, "row": 72, "col": 134}}, {"type": "Feature", "geometry": {"type": "Point", "coordinates": [93.76474999999999, 26.214125000000003]}, "properties": {"reference_class": 3, "prediction": 3, "evaluated": true, "fold": 0, "row": 73, "col": 283}}, {"type": "Feature", "geometry": {"type": "Point", "coordinates": [92.99491666666667, 26.208875000000003]}, "properties": {"reference_class": 4, "prediction": 4, "evaluated": true, "fold": 0, "row": 74, "col": 134}}, {"type": "Feature", "geometry": {"type": "Point", "coordinates": [92.99491666666667, 26.177375]}, "properties": {"reference_class": 4, "prediction": 4, "evaluated": true, "fold": 2, "row": 80, "col": 134}}, {"type": "Feature", "geometry": {"type": "Point", "coordinates": [92.91225, 26.166875]}, "properties": {"reference_class": 4, "prediction": 4, "evaluated": true, "fold": 1, "row": 82, "col": 118}}, {"type": "Feature", "geometry": {"type": "Point", "coordinates": [92.89675, 26.161625]}, "properties": {"reference_class": 4, "prediction": 4, "evaluated": true, "fold": 1, "row": 83, "col": 115}}, {"type": "Feature", "geometry": {"type": "Point", "coordinates": [92.90708333333333, 26.151125]}, "properties": {"reference_class": 4, "prediction": 4, "evaluated": true, "fold": 1, "row": 85, "col": 117}}, {"type": "Feature", "geometry": {"type": "Point", "coordinates": [93.71308333333333, 26.145875]}, "properties": {"reference_class": 3, "prediction": 3, "evaluated": true, "fold": 2, "row": 86, "col": 273}}, {"type": "Feature", "geometry": {"type": "Point", "coordinates": [92.92258333333334, 26.130125]}, "properties": {"reference_class": 4, "prediction": 4, "evaluated": true, "fold": 2, "row": 89, "col": 120}}, {"type": "Feature", "geometry": {"type": "Point", "coordinates": [92.90191666666666, 26.124875000000003]}, "properties": {"reference_class": 1, "prediction": 1, "evaluated": true, "fold": 1, "row": 90, "col": 116}}, {"type": "Feature", "geometry": {"type": "Point", "coordinates": [92.81925, 26.109125000000002]}, "properties": {"reference_class": 1, "prediction": 1, "evaluated": true, "fold": 0, "row": 93, "col": 100}}, {"type": "Feature", "geometry": {"type": "Point", "coordinates": [93.36691666666667, 26.098625000000002]}, "properties": {"reference_class": 1, "prediction": 1, "evaluated": true, "fold": 2, "row": 95, "col": 206}}, {"type": "Feature", "geometry": {"type": "Point", "coordinates": [92.90708333333333, 26.093375]}, "properties": {"reference_class": 4, "prediction": 4, "evaluated": true, "fold": 2, "row": 96, "col": 117}}, {"type": "Feature", "geometry": {"type": "Point", "coordinates": [93.00525, 26.093375]}, "properties": {"reference_class": 1, "prediction": 1, "evaluated": true, "fold": 1, "row": 96, "col": 136}}, {"type": "Feature", "geometry": {"type": "Point", "coordinates": [93.58908333333333, 26.088125]}, "properties": {"reference_class": 1, "prediction": 1, "evaluated": true, "fold": 1, "row": 97, "col": 249}}, {"type": "Feature", "geometry": {"type": "Point", "coordinates": [93.67691666666667, 26.088125]}, "properties": {"reference_class": 1, "prediction": 1, "evaluated": true, "fold": 2, "row": 97, "col": 266}}, {"type": "Feature", "geometry": {"type": "Point", "coordinates": [92.74175, 26.082875]}, "properties": {"reference_class": 5, "prediction": 5, "evaluated": true, "fold": 1, "row": 98, "col": 85}}, {"type": "Feature", "geometry": {"type": "Point", "coordinates": [92.78308333333334, 26.082875]}, "properties": {"reference_class": 3, "prediction": 3, "evaluated": true, "fold": 0, "row": 98, "col": 93}}, {"type": "Feature", "geometry": {"type": "Point", "coordinates": [92.97425, 26.077625]}, "properties": {"reference_class": 4, "prediction": 4, "evaluated": true, "fold": 0, "row": 99, "col": 130}}, {"type": "Feature", "geometry": {"type": "Point", "coordinates": [92.49374999999999, 26.067125]}, "properties": {"reference_class": 2, "prediction": 2, "evaluated": true, "fold": 1, "row": 101, "col": 37}}, {"type": "Feature", "geometry": {"type": "Point", "coordinates": [92.72108333333333, 26.067125]}, "properties": {"reference_class": 3, "prediction": 3, "evaluated": true, "fold": 1, "row": 101, "col": 81}}, {"type": "Feature", "geometry": {"type": "Point", "coordinates": [92.90708333333333, 26.067125]}, "properties": {"reference_class": 4, "prediction": 4, "evaluated": true, "fold": 2, "row": 101, "col": 117}}, {"type": "Feature", "geometry": {"type": "Point", "coordinates": [92.73141666666666, 26.061875]}, "properties": {"reference_class": 5, "prediction": 5, "evaluated": true, "fold": 1, "row": 102, "col": 83}}, {"type": "Feature", "geometry": {"type": "Point", "coordinates": [92.77275, 26.061875]}, "properties": {"reference_class": 5, "prediction": 5, "evaluated": true, "fold": 0, "row": 102, "col": 91}}, {"type": "Feature", "geometry": {"type": "Point", "coordinates": [92.95358333333333, 26.061875]}, "properties": {"reference_class": 4, "prediction": 4, "evaluated": true, "fold": 0, "row": 102, "col": 126}}, {"type": "Feature", "geometry": {"type": "Point", "coordinates": [93.32041666666666, 26.061875]}, "properties": {"reference_class": 1, "prediction": 1, "evaluated": true, "fold": 0, "row": 102, "col": 197}}, {"type": "Feature", "geometry": {"type": "Point", "coordinates": [93.78541666666666, 26.061875]}, "properties": {"reference_class": 3, "prediction": 3, "evaluated": true, "fold": 1, "row": 102, "col": 287}}, {"type": "Feature", "geometry": {"type": "Point", "coordinates": [92.74691666666666, 26.056625]}, "properties": {"reference_class": 5, "prediction": 5, "evaluated": true, "fold": 1, "row": 103, "col": 86}}, {"type": "Feature", "geometry": {"type": "Point", "coordinates": [92.76241666666667, 26.056625]}, "properties": {"reference_class": 5, "prediction": 5, "evaluated": true, "fold": 0, "row": 103, "col": 89}}, {"type": "Feature", "geometry": {"type": "Point", "coordinates": [92.95875, 26.056625]}, "properties": {"reference_class": 4, "prediction": 4, "evaluated": true, "fold": 0, "row": 103, "col": 127}}, {"type": "Feature", "geometry": {"type": "Point", "coordinates": [93.13441666666667, 26.056625]}, "properties": {"reference_class": 1, "prediction": 1, "evaluated": true, "fold": 0, "row": 103, "col": 161}}, {"type": "Feature", "geometry": {"type": "Point", "coordinates": [93.44958333333334, 26.056625]}, "properties": {"reference_class": 1, "prediction": 1, "evaluated": true, "fold": 1, "row": 103, "col": 222}}, {"type": "Feature", "geometry": {"type": "Point", "coordinates": [92.73141666666666, 26.046125]}, "properties": {"reference_class": 5, "prediction": 5, "evaluated": true, "fold": 1, "row": 105, "col": 83}}, {"type": "Feature", "geometry": {"type": "Point", "coordinates": [92.75208333333333, 26.046125]}, "properties": {"reference_class": 5, "prediction": 5, "evaluated": true, "fold": 1, "row": 105, "col": 87}}, {"type": "Feature", "geometry": {"type": "Point", "coordinates": [92.77791666666667, 26.046125]}, "properties": {"reference_class": 5, "prediction": 5, "evaluated": true, "fold": 1, "row": 105, "col": 92}}, {"type": "Feature", "geometry": {"type": "Point", "coordinates": [92.75725, 26.040875]}, "properties": {"reference_class": 5, "prediction": 5, "evaluated": true, "fold": 1, "row": 106, "col": 88}}, {"type": "Feature", "geometry": {"type": "Point", "coordinates": [92.76758333333333, 26.040875]}, "properties": {"reference_class": 5, "prediction": 5, "evaluated": true, "fold": 1, "row": 106, "col": 90}}, {"type": "Feature", "geometry": {"type": "Point", "coordinates": [92.90708333333333, 26.040875]}, "properties": {"reference_class": 4, "prediction": 4, "evaluated": true, "fold": 1, "row": 106, "col": 117}}, {"type": "Feature", "geometry": {"type": "Point", "coordinates": [92.77275, 26.035625000000003]}, "properties": {"reference_class": 5, "prediction": 5, "evaluated": true, "fold": 1, "row": 107, "col": 91}}, {"type": "Feature", "geometry": {"type": "Point", "coordinates": [92.91741666666667, 26.035625000000003]}, "properties": {"reference_class": 4, "prediction": 4, "evaluated": true, "fold": 1, "row": 107, "col": 119}}, {"type": "Feature", "geometry": {"type": "Point", "coordinates": [93.25325, 26.035625000000003]}, "properties": {"reference_class": 1, "prediction": 1, "evaluated": true, "fold": 1, "row": 107, "col": 184}}, {"type": "Feature", "geometry": {"type": "Point", "coordinates": [92.60741666666667, 26.019875000000003]}, "properties": {"reference_class": 3, "prediction": 3, "evaluated": true, "fold": 1, "row": 110, "col": 59}}, {"type": "Feature", "geometry": {"type": "Point", "coordinates": [93.03108333333333, 25.993625]}, "properties": {"reference_class": 1, "prediction": 1, "evaluated": true, "fold": 2, "row": 115, "col": 141}}, {"type": "Feature", "geometry": {"type": "Point", "coordinates": [93.63558333333333, 25.993625]}, "properties": {"reference_class": 1, "prediction": 1, "evaluated": true, "fold": 1, "row": 115, "col": 258}}, {"type": "Feature", "geometry": {"type": "Point", "coordinates": [93.02591666666666, 25.972625]}, "properties": {"reference_class": 1, "prediction": 1, "evaluated": true, "fold": 2, "row": 119, "col": 140}}, {"type": "Feature", "geometry": {"type": "Point", "coordinates": [93.53224999999999, 25.962125]}, "properties": {"reference_class": 1, "prediction": 1, "evaluated": true, "fold": 0, "row": 121, "col": 238}}, {"type": "Feature", "geometry": {"type": "Point", "coordinates": [92.85025, 25.941125000000003]}, "properties": {"reference_class": 1, "prediction": 1, "evaluated": true, "fold": 0, "row": 125, "col": 106}}, {"type": "Feature", "geometry": {"type": "Point", "coordinates": [93.14991666666667, 25.935875000000003]}, "properties": {"reference_class": 4, "prediction": 4, "evaluated": true, "fold": 0, "row": 126, "col": 164}}, {"type": "Feature", "geometry": {"type": "Point", "coordinates": [93.17575, 25.935875000000003]}, "properties": {"reference_class": 4, "prediction": 4, "evaluated": true, "fold": 0, "row": 126, "col": 169}}, {"type": "Feature", "geometry": {"type": "Point", "coordinates": [92.69008333333333, 25.930625000000003]}, "properties": {"reference_class": 3, "prediction": 3, "evaluated": true, "fold": 2, "row": 127, "col": 75}}, {"type": "Feature", "geometry": {"type": "Point", "coordinates": [93.02074999999999, 25.930625000000003]}, "properties": {"reference_class": 1, "prediction": 1, "evaluated": true, "fold": 0, "row": 127, "col": 139}}, {"type": "Feature", "geometry": {"type": "Point", "coordinates": [93.14475, 25.930625000000003]}, "properties": {"reference_class": 4, "prediction": 4, "evaluated": true, "fold": 0, "row": 127, "col": 163}}, {"type": "Feature", "geometry": {"type": "Point", "coordinates": [93.80608333333333, 25.930625000000003]}, "properties": {"reference_class": 3, "prediction": 3, "evaluated": true, "fold": 0, "row": 127, "col": 291}}, {"type": "Feature", "geometry": {"type": "Point", "coordinates": [93.84741666666666, 25.930625000000003]}, "properties": {"reference_class": 3, "prediction": 3, "evaluated": true, "fold": 0, "row": 127, "col": 299}}, {"type": "Feature", "geometry": {"type": "Point", "coordinates": [92.80375, 25.925375000000003]}, "properties": {"reference_class": 3, "prediction": 3, "evaluated": true, "fold": 0, "row": 128, "col": 97}}, {"type": "Feature", "geometry": {"type": "Point", "coordinates": [93.25841666666666, 25.914875000000002]}, "properties": {"reference_class": 1, "prediction": 1, "evaluated": true, "fold": 0, "row": 130, "col": 185}}, {"type": "Feature", "geometry": {"type": "Point", "coordinates": [92.78824999999999, 25.909625000000002]}, "properties": {"reference_class": 3, "prediction": 3, "evaluated": true, "fold": 0, "row": 131, "col": 94}}, {"type": "Feature", "geometry": {"type": "Point", "coordinates": [92.92258333333334, 25.909625000000002]}, "properties": {"reference_class": 1, "prediction": 1, "evaluated": true, "fold": 0, "row": 131, "col": 120}}, {"type": "Feature", "geometry": {"type": "Point", "coordinates": [93.17058333333333, 25.909625000000002]}, "properties": {"reference_class": 4, "prediction": 4, "evaluated": true, "fold": 0, "row": 131, "col": 168}}, {"type": "Feature", "geometry": {"type": "Point", "coordinates": [93.11891666666666, 25.904375]}, "properties": {"reference_class": 4, "prediction": 4, "evaluated": true, "fold": 2, "row": 132, "col": 158}}, {"type": "Feature", "geometry": {"type": "Point", "coordinates": [92.78824999999999, 25.883375]}, "properties": {"reference_class": 3, "prediction": 3, "evaluated": true, "fold": 2, "row": 136, "col": 94}}, {"type": "Feature", "geometry": {"type": "Point", "coordinates": [93.36691666666667, 25.883375]}, "properties": {"reference_class": 1, "prediction": 1, "evaluated": true, "fold": 1, "row": 136, "col": 206}}, {"type": "Feature", "geometry": {"type": "Point", "coordinates": [92.98458333333333, 25.878125]}, "properties": {"reference_class": 1, "prediction": 1, "evaluated": true, "fold": 0, "row": 137, "col": 132}}, {"type": "Feature", "geometry": {"type": "Point", "coordinates": [93.40308333333333, 25.878125]}, "properties": {"reference_class": 1, "prediction": 1, "evaluated": true, "fold": 0, "row": 137, "col": 213}}, {"type": "Feature", "geometry": {"type": "Point", "coordinates": [92.41108333333334, 25.867625]}, "properties": {"reference_class": 2, "prediction": 2, "evaluated": true, "fold": 1, "row": 139, "col": 21}}, {"type": "Feature", "geometry": {"type": "Point", "coordinates": [92.67975, 25.851875]}, "properties": {"reference_class": 3, "prediction": 3, "evaluated": true, "fold": 0, "row": 142, "col": 73}}, {"type": "Feature", "geometry": {"type": "Point", "coordinates": [93.36691666666667, 25.841375000000003]}, "properties": {"reference_class": 4, "prediction": 4, "evaluated": true, "fold": 2, "row": 144, "col": 206}}, {"type": "Feature", "geometry": {"type": "Point", "coordinates": [93.66658333333334, 25.841375000000003]}, "properties": {"reference_class": 3, "prediction": 3, "evaluated": true, "fold": 0, "row": 144, "col": 264}}, {"type": "Feature", "geometry": {"type": "Point", "coordinates": [92.80375, 25.830875000000002]}, "properties": {"reference_class": 3, "prediction": 3, "evaluated": true, "fold": 2, "row": 146, "col": 97}}, {"type": "Feature", "geometry": {"type": "Point", "coordinates": [93.00525, 25.825625000000002]}, "properties": {"reference_class": 1, "prediction": 1, "evaluated": true, "fold": 1, "row": 147, "col": 136}}, {"type": "Feature", "geometry": {"type": "Point", "coordinates": [93.38241666666666, 25.815125000000002]}, "properties": {"reference_class": 4, "prediction": 4, "evaluated": true, "fold": 0, "row": 149, "col": 209}}, {"type": "Feature", "geometry": {"type": "Point", "coordinates": [93.65625, 25.809875]}, "properties": {"reference_class": 5, "prediction": 5, "evaluated": true, "fold": 0, "row": 150, "col": 262}}, {"type": "Feature", "geometry": {"type": "Point", "coordinates": [92.60225, 25.799375]}, "properties": {"reference_class": 2, "prediction": 2, "evaluated": true, "fold": 2, "row": 152, "col": 58}}, {"type": "Feature", "geometry": {"type": "Point", "coordinates": [93.80608333333333, 25.799375]}, "properties": {"reference_class": 2, "prediction": 2, "evaluated": true, "fold": 0, "row": 152, "col": 291}}, {"type": "Feature", "geometry": {"type": "Point", "coordinates": [93.00008333333334, 25.794125]}, "properties": {"reference_class": 1, "prediction": 1, "evaluated": true, "fold": 1, "row": 153, "col": 135}}, {"type": "Feature", "geometry": {"type": "Point", "coordinates": [92.69008333333333, 25.778375]}, "properties": {"reference_class": 2, "prediction": 2, "evaluated": true, "fold": 1, "row": 156, "col": 75}}, {"type": "Feature", "geometry": {"type": "Point", "coordinates": [93.16541666666666, 25.767875]}, "properties": {"reference_class": 1, "prediction": 1, "evaluated": true, "fold": 2, "row": 158, "col": 167}}, {"type": "Feature", "geometry": {"type": "Point", "coordinates": [92.49891666666666, 25.762625]}, "properties": {"reference_class": 2, "prediction": 2, "evaluated": true, "fold": 2, "row": 159, "col": 38}}, {"type": "Feature", "geometry": {"type": "Point", "coordinates": [93.42375, 25.762625]}, "properties": {"reference_class": 3, "prediction": 3, "evaluated": true, "fold": 1, "row": 159, "col": 217}}, {"type": "Feature", "geometry": {"type": "Point", "coordinates": [92.79341666666666, 25.736375000000002]}, "properties": {"reference_class": 3, "prediction": 3, "evaluated": true, "fold": 0, "row": 164, "col": 95}}, {"type": "Feature", "geometry": {"type": "Point", "coordinates": [92.73141666666666, 25.725875000000002]}, "properties": {"reference_class": 2, "prediction": 2, "evaluated": true, "fold": 1, "row": 166, "col": 83}}, {"type": "Feature", "geometry": {"type": "Point", "coordinates": [93.25841666666666, 25.720625000000002]}, "properties": {"reference_class": 3, "prediction": 3, "evaluated": true, "fold": 0, "row": 167, "col": 185}}, {"type": "Feature", "geometry": {"type": "Point", "coordinates": [93.50125, 25.710125]}, "properties": {"reference_class": 3, "prediction": 3, "evaluated": true, "fold": 1, "row": 169, "col": 232}}, {"type": "Feature", "geometry": {"type": "Point", "coordinates": [92.38008333333333, 25.683875]}, "properties": {"reference_class": 2, "prediction": 2, "evaluated": true, "fold": 1, "row": 174, "col": 15}}, {"type": "Feature", "geometry": {"type": "Point", "coordinates": [92.65391666666666, 25.668125]}, "properties": {"reference_class": 2, "prediction": 2, "evaluated": true, "fold": 1, "row": 177, "col": 68}}, {"type": "Feature", "geometry": {"type": "Point", "coordinates": [92.89675, 25.636625000000002]}, "properties": {"reference_class": 2, "prediction": 2, "evaluated": true, "fold": 1, "row": 183, "col": 115}}, {"type": "Feature", "geometry": {"type": "Point", "coordinates": [93.02074999999999, 25.631375000000002]}, "properties": {"reference_class": 3, "prediction": 3, "evaluated": true, "fold": 1, "row": 184, "col": 139}}, {"type": "Feature", "geometry": {"type": "Point", "coordinates": [93.36691666666667, 25.626125000000002]}, "properties": {"reference_class": 3, "prediction": 3, "evaluated": true, "fold": 1, "row": 185, "col": 206}}, {"type": "Feature", "geometry": {"type": "Point", "coordinates": [92.66941666666666, 25.599875]}, "properties": {"reference_class": 2, "prediction": 2, "evaluated": true, "fold": 0, "row": 190, "col": 71}}, {"type": "Feature", "geometry": {"type": "Point", "coordinates": [92.98458333333333, 25.594625]}, "properties": {"reference_class": 2, "prediction": 2, "evaluated": true, "fold": 0, "row": 191, "col": 132}}, {"type": "Feature", "geometry": {"type": "Point", "coordinates": [93.22741666666667, 25.584125]}, "properties": {"reference_class": 2, "prediction": 2, "evaluated": true, "fold": 2, "row": 193, "col": 179}}, {"type": "Feature", "geometry": {"type": "Point", "coordinates": [93.12925, 25.573625]}, "properties": {"reference_class": 2, "prediction": 2, "evaluated": true, "fold": 1, "row": 195, "col": 160}}]}